{"fetched_at":"2026-07-17T17:37:53.421Z","source":"https://celestrak.org/NORAD/elements/gp.php?GROUP=oneweb&FORMAT=JSON","constellation":"oneweb","records":[{"OBJECT_NAME":"ONEWEB-0018","OBJECT_ID":"2020-020L","EPOCH":"2026-07-17T04:51:26.565984","CLASSIFICATION_TYPE":"U","MEAN_MOTION":13.11415176,"ECCENTRICITY":0.00016766,"INCLINATION":87.8886,"RA_OF_ASC_NODE":15.0893,"ARG_OF_PERICENTER":102.8689,"MEAN_ANOMALY":257.2626,"EPHEMERIS_TYPE":0,"NORAD_CAT_ID":45434,"ELEMENT_SET_NO":999,"REV_AT_EPOCH":30656,"BSTAR":-0.001155146,"MEAN_MOTION_DOT":-0.00000397,"MEAN_MOTION_DDOT":0},{"OBJECT_NAME":"ONEWEB-0083","OBJECT_ID":"2020-020M","EPOCH":"2026-07-16T23:07:36.215040","CLASSIFICATION_TYPE":"U","MEAN_MOTION":13.11415143,"ECCENTRICITY":0.00018915,"INCLINATION":87.8892,"RA_OF_ASC_NODE":15.1319,"ARG_OF_PERICENTER":92.1568,"MEAN_ANOMALY":267.9777,"EPHEMERIS_TYPE":0,"NORAD_CAT_ID":45435,"ELEMENT_SET_NO":999,"REV_AT_EPOCH":30657,"BSTAR":-0.000077478512,"MEAN_MOTION_DOT":-1.5e-7,"MEAN_MOTION_DDOT":0},{"OBJECT_NAME":"ONEWEB-0095","OBJECT_ID":"2020-020N","EPOCH":"2026-07-16T22:55:24.183264","CLASSIFICATION_TYPE":"U","MEAN_MOTION":13.11414618,"ECCENTRICITY":0.00022793,"INCLINATION":87.8892,"RA_OF_ASC_NODE":15.1426,"ARG_OF_PERICENTER":76.0919,"MEAN_ANOMALY":284.0462,"EPHEMERIS_TYPE":0,"NORAD_CAT_ID":45436,"ELEMENT_SET_NO":999,"REV_AT_EPOCH":30657,"BSTAR":0.00096572726,"MEAN_MOTION_DOT":0.00000355,"MEAN_MOTION_DDOT":0},{"OBJECT_NAME":"ONEWEB-0092","OBJECT_ID":"2020-020P","EPOCH":"2026-07-17T05:08:57.170976","CLASSIFICATION_TYPE":"U","MEAN_MOTION":13.11413779,"ECCENTRICITY":0.00017323,"INCLINATION":87.8891,"RA_OF_ASC_NODE":15.0819,"ARG_OF_PERICENTER":96.5758,"MEAN_ANOMALY":263.5567,"EPHEMERIS_TYPE":0,"NORAD_CAT_ID":45437,"ELEMENT_SET_NO":999,"REV_AT_EPOCH":30672,"BSTAR":-0.0018163278,"MEAN_MOTION_DOT":-0.00000631,"MEAN_MOTION_DDOT":0},{"OBJECT_NAME":"ONEWEB-0085","OBJECT_ID":"2020-020Q","EPOCH":"2026-07-16T12:07:59.951136","CLASSIFICATION_TYPE":"U","MEAN_MOTION":13.11415533,"ECCENTRICITY":0.0001869,"INCLINATION":87.8885,"RA_OF_ASC_NODE":15.2282,"ARG_OF_PERICENTER":89.8606,"MEAN_ANOMALY":270.2736,"EPHEMERIS_TYPE":0,"NORAD_CAT_ID":45438,"ELEMENT_SET_NO":999,"REV_AT_EPOCH":30651,"BSTAR":-0.00017916394,"MEAN_MOTION_DOT":-5.1e-7,"MEAN_MOTION_DDOT":0},{"OBJECT_NAME":"ONEWEB-0096","OBJECT_ID":"2020-020R","EPOCH":"2026-07-16T23:09:50.516064","CLASSIFICATION_TYPE":"U","MEAN_MOTION":13.11414582,"ECCENTRICITY":0.00019309,"INCLINATION":87.8891,"RA_OF_ASC_NODE":15.1343,"ARG_OF_PERICENTER":88.5405,"MEAN_ANOMALY":271.5944,"EPHEMERIS_TYPE":0,"NORAD_CAT_ID":45439,"ELEMENT_SET_NO":999,"REV_AT_EPOCH":30656,"BSTAR":-0.00020119745,"MEAN_MOTION_DOT":-5.9e-7,"MEAN_MOTION_DDOT":0},{"OBJECT_NAME":"ONEWEB-0037","OBJECT_ID":"2020-020S","EPOCH":"2026-07-16T12:48:27.579456","CLASSIFICATION_TYPE":"U","MEAN_MOTION":13.11416732,"ECCENTRICITY":0.00019782,"INCLINATION":87.8903,"RA_OF_ASC_NODE":15.1936,"ARG_OF_PERICENTER":86.7245,"MEAN_ANOMALY":273.4109,"EPHEMERIS_TYPE":0,"NORAD_CAT_ID":45440,"ELEMENT_SET_NO":999,"REV_AT_EPOCH":30654,"BSTAR":-0.00082466733,"MEAN_MOTION_DOT":-0.0000028,"MEAN_MOTION_DDOT":0},{"OBJECT_NAME":"ONEWEB-0042","OBJECT_ID":"2020-020T","EPOCH":"2026-07-16T21:05:08.530944","CLASSIFICATION_TYPE":"U","MEAN_MOTION":13.11415827,"ECCENTRICITY":0.00017515,"INCLINATION":87.8892,"RA_OF_ASC_NODE":15.1481,"ARG_OF_PERICENTER":90.2278,"MEAN_ANOMALY":269.9051,"EPHEMERIS_TYPE":0,"NORAD_CAT_ID":45441,"ELEMENT_SET_NO":999,"REV_AT_EPOCH":30655,"BSTAR":0.00098867601,"MEAN_MOTION_DOT":0.00000363,"MEAN_MOTION_DDOT":0},{"OBJECT_NAME":"ONEWEB-0098","OBJECT_ID":"2020-020U","EPOCH":"2026-07-17T06:08:34.301184","CLASSIFICATION_TYPE":"U","MEAN_MOTION":13.11414204,"ECCENTRICITY":0.00019183,"INCLINATION":87.889,"RA_OF_ASC_NODE":15.0817,"ARG_OF_PERICENTER":93.1148,"MEAN_ANOMALY":267.0199,"EPHEMERIS_TYPE":0,"NORAD_CAT_ID":45442,"ELEMENT_SET_NO":999,"REV_AT_EPOCH":30658,"BSTAR":0.0012717854,"MEAN_MOTION_DOT":0.00000463,"MEAN_MOTION_DDOT":0},{"OBJECT_NAME":"ONEWEB-0055","OBJECT_ID":"2020-020V","EPOCH":"2026-07-17T00:08:15.288864","CLASSIFICATION_TYPE":"U","MEAN_MOTION":13.11418578,"ECCENTRICITY":0.0001924,"INCLINATION":87.8893,"RA_OF_ASC_NODE":15.1306,"ARG_OF_PERICENTER":91.8363,"MEAN_ANOMALY":268.2985,"EPHEMERIS_TYPE":0,"NORAD_CAT_ID":45443,"ELEMENT_SET_NO":999,"REV_AT_EPOCH":30652,"BSTAR":0.00061071405,"MEAN_MOTION_DOT":0.00000229,"MEAN_MOTION_DDOT":0},{"OBJECT_NAME":"ONEWEB-0093","OBJECT_ID":"2020-020W","EPOCH":"2026-07-16T12:51:00.974016","CLASSIFICATION_TYPE":"U","MEAN_MOTION":13.10895514,"ECCENTRICITY":0.00015229,"INCLINATION":87.8895,"RA_OF_ASC_NODE":15.2212,"ARG_OF_PERICENTER":89.9122,"MEAN_ANOMALY":270.2181,"EPHEMERIS_TYPE":0,"NORAD_CAT_ID":45444,"ELEMENT_SET_NO":999,"REV_AT_EPOCH":30652,"BSTAR":-0.00085297996,"MEAN_MOTION_DOT":-0.00000287,"MEAN_MOTION_DDOT":0},{"OBJECT_NAME":"ONEWEB-0029","OBJECT_ID":"2020-020X","EPOCH":"2026-07-17T05:48:01.947744","CLASSIFICATION_TYPE":"U","MEAN_MOTION":13.11416769,"ECCENTRICITY":0.00016115,"INCLINATION":87.8885,"RA_OF_ASC_NODE":15.0836,"ARG_OF_PERICENTER":93.2628,"MEAN_ANOMALY":266.8685,"EPHEMERIS_TYPE":0,"NORAD_CAT_ID":45445,"ELEMENT_SET_NO":999,"REV_AT_EPOCH":30659,"BSTAR":0.00097733497,"MEAN_MOTION_DOT":0.00000359,"MEAN_MOTION_DDOT":0},{"OBJECT_NAME":"ONEWEB-0068","OBJECT_ID":"2020-020Y","EPOCH":"2026-07-17T05:08:32.189280","CLASSIFICATION_TYPE":"U","MEAN_MOTION":13.11454179,"ECCENTRICITY":0.0001777,"INCLINATION":87.8893,"RA_OF_ASC_NODE":15.086,"ARG_OF_PERICENTER":90.2107,"MEAN_ANOMALY":269.9224,"EPHEMERIS_TYPE":0,"NORAD_CAT_ID":45446,"ELEMENT_SET_NO":999,"REV_AT_EPOCH":30653,"BSTAR":-0.022465827,"MEAN_MOTION_DOT":-0.00007947,"MEAN_MOTION_DDOT":0},{"OBJECT_NAME":"ONEWEB-0046","OBJECT_ID":"2020-020Z","EPOCH":"2026-07-17T04:56:31.203744","CLASSIFICATION_TYPE":"U","MEAN_MOTION":13.11416291,"ECCENTRICITY":0.00016358,"INCLINATION":87.8883,"RA_OF_ASC_NODE":15.0915,"ARG_OF_PERICENTER":84.5027,"MEAN_ANOMALY":275.6288,"EPHEMERIS_TYPE":0,"NORAD_CAT_ID":45447,"ELEMENT_SET_NO":999,"REV_AT_EPOCH":30654,"BSTAR":-0.0014726962,"MEAN_MOTION_DOT":-0.00000509,"MEAN_MOTION_DDOT":0},{"OBJECT_NAME":"ONEWEB-0063","OBJECT_ID":"2020-020AA","EPOCH":"2026-07-17T00:08:38.940864","CLASSIFICATION_TYPE":"U","MEAN_MOTION":13.11418355,"ECCENTRICITY":0.00019049,"INCLINATION":87.8895,"RA_OF_ASC_NODE":15.1329,"ARG_OF_PERICENTER":82.0436,"MEAN_ANOMALY":278.0909,"EPHEMERIS_TYPE":0,"NORAD_CAT_ID":45448,"ELEMENT_SET_NO":999,"REV_AT_EPOCH":30660,"BSTAR":0.00063685188,"MEAN_MOTION_DOT":0.00000238,"MEAN_MOTION_DDOT":0},{"OBJECT_NAME":"ONEWEB-0019","OBJECT_ID":"2020-020AB","EPOCH":"2026-07-16T23:14:31.906176","CLASSIFICATION_TYPE":"U","MEAN_MOTION":13.11414583,"ECCENTRICITY":0.00019876,"INCLINATION":87.8887,"RA_OF_ASC_NODE":15.1247,"ARG_OF_PERICENTER":96.388,"MEAN_ANOMALY":263.7474,"EPHEMERIS_TYPE":0,"NORAD_CAT_ID":45449,"ELEMENT_SET_NO":999,"REV_AT_EPOCH":30644,"BSTAR":-0.00072726948,"MEAN_MOTION_DOT":-0.00000245,"MEAN_MOTION_DDOT":0}]}
